#dP2021  7 11  0  0  0.00000000      96 __u+U ITR00 EXT  IAC
## 2166      0.00000000   900.00000000 59406 0.0000000000000
+  115   C06C07C08C09C10C11C12C13C14C16C19C20C21C22C23C24C25
+        C26C27C28C29C30C32C33C34C35C36C37C38C39C40C41C42C43
+        C44C45C46E01E02E03E04E05E07E08E09E11E12E13E14E15E18
+        E19E21E24E25E26E27E30E31E33E36G01G02G03G04G05G07G08
+        G09G10G11G12G13G14G15G16G17G18G19G20G21G22G23G24G25
+        G26G27G28G29G30G31G32J01J02R01R02R03R04R05R07R08R09
+        R11R12R13R14R15R16R17R18R19R20R21R22R24  0  0  0  0
++         8 10 11  9  8  9  9  9  8 10  8  9  9  9 10  9  8
++         8  7  9  8  8  7  9 10  9  7  8 10 11 10  9  9  8
++        10  8  7  9  9  8  7  8  9  7  6  7  8  7  8  8  8
++         8  8  9  7  7  8  9  8  9  8  7  9 10  8  8  8  8
++         8  8  9  7  8  7  8  7  9  7 10  9  7  8  8  8  8
++         8  7  8  7  7  8  7 10 11  9  9  8  7  9 10  8  9
++         9  8  7 10  9  7  7  7  8  8  7  9  7  0  0  0  0
%c M  cc GPS ccc cccc cccc cccc cccc ccccc ccccc ccccc ccccc
%c cc cc ccc ccc cccc cccc cccc cccc ccccc ccccc ccccc ccccc
%f  0.0000000  0.000000000  0.00000000000  0.000000000000000
%f  0.0000000  0.000000000  0.00000000000  0.000000000000000
%i    0    0    0    0      0      0      0      0         0
%i    0    0    0    0      0      0      0      0         0
/* IAC                                ULTRA-RAPID PREDICTION
/* S/V CLOCKS ARE ALIGNED TO GNSS TIME                      
/* G:C1WC2W R:C1PC2P E:C1XC5X C:C2IC6I J:C1CC2S             
/* PCV:IGS14_2163 OL/AL:FES2004  NONE     YN ORB:CoN CLK:CoN
*  2021 07 11  9 30  0.00000000
PC06 -16802.841944  38543.549545   6218.009824    610.413113
PC07  -8356.862070  26624.584350 -31241.080961    133.744013
PC08 -22028.684811  22413.401956  28019.667760   -903.028664
PC09  -8040.158614  40636.148346  -8730.132272    382.557960
PC10   4433.018907  32292.004981 -26262.561372    -19.986991
PC11  -1130.500416  24660.325258  13023.565935    451.045077
PC12 -12976.067531  24311.292128  -4286.241042    815.296845
PC13  -8768.442746  24374.801374  33303.089248    332.448716
PC14   9510.855385  23864.735473  10845.364699    817.242915
PC16 -14715.789955  39466.652164   3845.452184   -925.113680
PC19 -16585.148493 -22398.969441  -1614.639109    904.862970
PC20  -2707.576233 -22023.032771 -16929.521764   -848.411963
PC21 -13600.591794   8345.442067  22912.492307   -935.400867
PC22 -21293.034272  -9871.481365  15125.596779   -948.373668
PC23  26759.048506   1745.325929  -7704.332264   -966.806522
PC24  -7842.939729  16427.465372 -21145.424140   -933.707155
PC25  14553.012733  12311.316022 -20387.490186   -887.596397
PC26 -23384.462495  11306.586352 -10163.439831    880.386941
PC27  16925.011717 -18220.854172  12624.666009    562.542461
PC28  16481.465884    802.814378  22503.723524    -51.940626
PC29  -7101.541898 -19066.946932 -19110.104309    417.983639
PC30   6830.758259 -26741.714014  -4061.937533    473.695367
PC32  13525.270230  -8459.878986 -22880.471818   -924.379631
PC33  16619.598583  22335.371999   1735.198888   -942.044512
PC34  -6383.746576  26753.462519   4767.616371   -630.638642
PC35 -16466.506006   -655.963266 -22534.072348   -192.478992
PC36 -13861.653541 -12831.494014  20573.740497   -732.080172
PC37  24201.575205 -10294.823162   9374.344502   -865.967713
PC38 -20272.341102  24679.835888  27455.233115    160.991660
PC39 -11384.668775  40572.475731   2998.548447     32.335541
PC40    265.088224  28965.561139 -30554.765272    179.456209
PC41  21348.263215  10100.347974 -14816.510418   -958.168221
PC42   1906.588335  21692.745910  17482.222603   -918.574647
PC43   6701.913935  19574.916886  18723.271425   -816.202581
PC44 -16447.787007  18605.945143 -12772.524386    283.740614
PC45 -26792.117723  -1579.448756   7627.657567    490.498490
PC46   6672.230440 -16409.022966  21582.527871    184.204283
PE01  27892.151337   9905.544187   -158.653796  -1147.721381
PE02 -27916.552914  -9826.579700     37.298532    232.133267
PE03 -17374.925271 -11475.767086  21047.423790   -451.440894
PE04  14758.192399 -10650.569299 -23335.427425   -810.945018
PE05  -9820.046151 -27196.160349   6355.413205   -266.086671
PE07  -3385.734955  26890.740312  11892.992888   -560.322075
PE08 -14449.422612  11041.727169  23357.521383   5972.130417
PE09   3042.554769 -26998.526704 -11763.155844   5604.243911
PE11  13837.018593 -23006.187190 -12467.575904   5735.281352
PE12  24322.891918 -15382.661393   6883.634268   5116.708018
PE13 -14171.140737  23007.737953  12084.307863    418.874182
PE14  15151.800350  -1593.329377  18251.616410  -1496.362940
PE15 -24262.435697  15502.089997  -6877.434055    804.094991
PE18 -20284.761288  -3835.385581 -24833.679011  -1639.845182
PE19  16868.386923  13897.829081 -19952.319458    324.045957
PE21  16530.269695  17816.435336 -16891.046632   -675.601061
PE24   5995.134953 -15487.609306  24494.760364  -1001.823109
PE25 -16333.024631 -17861.829238  17051.042268   -539.646057
PE26   5125.213150  16534.815079  24005.632394   1592.347584
PE27  -4893.716799  15819.979064 -24527.590391    -73.209116
PE30 -23969.937342   3727.613026 -16961.478224   2793.166024
PE31  23285.153736  -4551.186806  17707.832422   -483.131215
PE33  20044.450209   1115.864540  21747.178923   -467.849811
PE36  -4247.294181 -16950.353586 -23894.156392   -232.886553
PG01   6561.765271 -17974.952305 -18536.093521    631.691298
PG02 -22168.123240  14601.893460   -932.987593   -618.784461
PG03  -2647.834227 -17310.277251 -20093.923247   -217.246896
PG04    846.146465 -26512.471304   -280.970750   -202.113896
PG05 -10639.151459  11422.184660  21350.362396    -47.572270
PG07  -9142.140038 -12709.339791  21836.669357    199.710776
PG08   6732.175361 -23195.287054  10679.334239    -28.382387
PG09  -7869.498021 -23185.478065  10206.696196   -355.017359
PG10  23944.841214  11559.573275  -2419.511235   -159.780451
PG11 -24040.090174  11206.368901  -1400.027289     12.801461
PG12    706.493337  17212.394086 -20505.288534    -67.057404
PG13 -12899.348318  17011.158156  15575.159624    156.226889
PG14 -23445.964233 -12175.728005  -2966.860954     50.027059
PG15  -4272.668871  24000.026549   9740.233752   -136.322249
PG16  16649.426406  -5002.929504  19966.722444   -355.287607
PG17 -12648.359676 -11672.376133 -19800.546783    472.041426
PG18  11292.832640  10653.991982  21545.214316    341.725638
PG19 -14808.421542  -1841.502096 -22256.025014     24.827635
PG20 -19314.326977   5922.115072  17043.640366    520.304332
PG21  13564.533847 -19106.738960 -11298.300585    130.561613
PG22   5838.155830 -14544.015766 -21265.172441   -566.447826
PG23  18911.917015  16665.821264   8438.553507     86.130481
PG24 -10013.823006  19873.651045 -14447.617963    169.770945
PG25  12791.081994  18692.884573 -14347.207259    171.495373
PG26  23393.882987   1510.956055  12680.798679    109.199138
PG27  12161.833709 -14657.981901  18172.393175   -161.112411
PG28 -23166.556769  -9211.715173  -8333.277448    539.813126
PG29   4685.746783  24359.472494   9360.378584   -378.357034
PG30 -19844.150437  -3653.330674  17456.813357   -449.453693
PG31  24369.092926  -5793.264135  -9589.779738   -127.999972
PG32  14615.938537   8109.573222 -20563.891649     14.653640
PJ01 -25634.761660  22876.119839  29445.156857   -413.254363
PJ02 -30407.492497  14546.522754 -20822.240613     -0.715378
PR01   5641.524919  21843.881012  11891.231286     82.149883
PR02  14548.174640  19166.896126  -8509.203944    485.628528
PR03  13666.817059   4423.368138 -21047.498726     39.288754
PR04   4879.672358 -12496.423352 -21665.421243     95.288382
PR05  -6416.739723 -22481.036273 -10166.074842     75.142407
PR07 -13429.644859  -3640.604377  21407.803118    -42.079850
PR08  -4950.707237  12629.988088  21662.635237    -59.887864
PR09 -19752.919815  -7496.307937  14369.732151      2.339345
PR11 -16881.500951   7901.302621 -17407.796700    -20.603130
PR12   2206.036950  10983.159043 -22886.355611    244.385594
PR13  19153.627628   7580.815343 -15050.683789    -57.541303
PR14  25376.647208   -444.552271   2455.946575     66.338297
PR15  16481.572833  -7964.586405  17786.305958    102.750773
PR16  -3550.403648 -11060.884623  22681.503651    -17.719318
PR17  15069.803810  -7542.156440  19166.399730    440.105530
PR18  15358.479645 -19658.017898   5211.335701     83.042421
PR19   8674.207794 -21420.252460 -10813.990255   -151.088518
PR20  -5531.067104  -9912.704608 -22838.222509    -52.290676
PR21 -15344.331627   8604.760860 -18464.952055   -223.041148
PR22 -15241.368027  20085.411491  -4195.667255   -122.087527
PR24   6563.372469   9463.612615  22767.031615     49.999054
EOF
